ONEWEB-0271             
1 48989U 21060Y   24173.93185026  .00000102  00000+0  23402-3 0  9994
2 48989  87.9101  13.1461 0002218  83.1114 277.0269 13.16597053144230
ONEWEB-0272             
1 48990U 21060Z   24173.57404893 -.00000013  00000+0 -67906-4 0  9993
2 48990  87.9103  13.2458 0002142  86.2470 273.8906 13.16594956144136
ONEWEB-0273             
1 48991U 21060AA  24173.59621208 -.00000006  00000+0 -48032-4 0  9998
2 48991  87.9099  13.2280 0001912  81.2982 278.8365 13.16595015144110
ONEWEB-0274             
1 48992U 21060AB  24173.92553577 -.00000033  00000+0 -11889-3 0  9998
2 48992  87.9110  13.1768 0002252  97.4841 262.6546 13.16594533144190
ONEWEB-0275             
1 48993U 21060AC  24173.91445196  .00000137  00000+0  32547-3 0  9992
2 48993  87.9101  13.1610 0001981  82.8770 277.2586 13.16595020144125
ONEWEB-0276             
1 48994U 21060AD  24173.94768932  .00001177  00000+0  30433-2 0  9998
2 48994  87.9103  13.1503 0002078  80.5745 279.5621 13.16603510144145
ONEWEB-0277             
1 48995U 21060AE  24173.58038004  .00000007  00000+0 -14797-4 0  9998
2 48995  87.9101  13.2614 0002347  80.8341 279.3055 13.16594919144086
ONEWEB-0278             
1 48996U 21060AF  24173.57087859  .00000017  00000+0  11001-4 0  9995
2 48996  87.9102  13.2220 0001553  80.7471 279.3836 13.16595564144211
ONEWEB-0279             
1 48997U 21060AG  24173.57879965  .00000018  00000+0  13149-4 0  9999
2 48997  87.9101  13.2182 0002270  83.3833 276.7556 13.16594579144143
ONEWEB-0280             
1 48998U 21060AH  24173.59304722  .00000108  00000+0  24842-3 0  9997
2 48998  87.9106  13.2162 0001687  78.2879 281.8441 13.16594548144080
ONEWEB-0281             
1 48999U 21060AJ  24173.59938310  .00000022  00000+0  23094-4 0  9998
2 48999  87.9099  13.2174 0001892  93.5285 266.6062 13.16594448144151
ONEWEB-0282             
1 49000U 21060AK  24173.93345384  .00000095  00000+0  21491-3 0  9991
2 49000  87.9101  13.1678 0002048  78.6497 281.4864 13.16594631144171
ONEWEB-0283             
1 49001U 21060AL  24173.92237061  .00000183  00000+0  44634-3 0  9995
2 49001  87.9099  13.1763 0002127  85.8203 274.3171 13.16595025144187
ONEWEB-0284             
1 49002U 21060AM  24173.91603808  .00000060  00000+0  12324-3 0  9996
2 49002  87.9093  13.1609 0001871  79.7856 280.3486 13.16594373144161
ONEWEB-0285             
1 49075U 21075A   24173.89235928  .00000299  00000+0  79565-3 0  9997
2 49075  87.8942 135.0838 0002041  81.2547 278.8812 13.12448147140070
ONEWEB-0286             
1 49076U 21075B   24173.86386680  .00000050  00000+0  10260-3 0  9999
2 49076  87.8939 135.0918 0001795  88.9374 271.1961 13.12445181139426
ONEWEB-0287             
1 49077U 21075C   24173.90076294  .00000014  00000+0  25701-5 0  9990
2 49077  87.9167 150.2495 0001778  83.3388 276.7946 13.17666969138118
ONEWEB-0288             
1 49078U 21075D   24173.92630507 -.00000394  00000+0 -11306-2 0  9992
2 49078  87.8940 135.0836 0001938  80.1948 279.9399 13.12443964140058
ONEWEB-0289             
1 49079U 21075E   24173.92962640  .00000023  00000+0  26505-4 0  9995
2 49079  87.9170 150.2714 0002232  85.1211 275.0175 13.17555587138691
ONEWEB-0290             
1 49080U 21075F   24173.91199935  .00000047  00000+0  87980-4 0  9995
2 49080  87.9167 150.2358 0001828  73.1450 286.9882 13.17625486138103
ONEWEB-0291             
1 49081U 21075G   24173.89595262 -.00001181  00000+0 -30731-2 0  9998
2 49081  87.9162 150.2596 0001916  84.4592 275.6758 13.17691170138091
ONEWEB-0293             
1 49082U 21075H   24173.92160056 -.00000008  00000+0 -52980-4 0  9991
2 49082  87.9167 150.2688 0001911  77.5855 282.5490 13.17588249138125
ONEWEB-0294             
1 49083U 21075J   24173.93279581 -.00000217  00000+0 -63806-3 0  9997
2 49083  87.8938 135.0814 0001728  64.3399 295.7908 13.12445153139443
ONEWEB-0295             
1 49084U 21075K   24173.92320323  .00000018  00000+0  12937-4 0  9995
2 49084  87.9168 150.2461 0001617  85.7287 274.4029 13.17582808138088
ONEWEB-0296             
1 49085U 21075L   24173.91332386 -.00000311  00000+0 -90120-3 0  9994
2 49085  87.8945 135.0868 0001362  71.9234 288.2043 13.12442148139446
ONEWEB-0297             
1 49086U 21075M   24173.94415200  .00000155  00000+0  39655-3 0  9995
2 49086  87.8950 135.0869 0002054  85.4740 274.6623 13.12444576140054
ONEWEB-0298             
1 49087U 21075N   24173.92641904  .00000039  00000+0  68437-4 0  9998
2 49087  87.9168 150.2640 0001944  90.5676 269.5678 13.17567408138117
ONEWEB-0299             
1 49088U 21075P   24173.92802629  .00000036  00000+0  60315-4 0  9996
2 49088  87.9165 150.2329 0001783  90.5466 269.5869 13.17561570138090
ONEWEB-0300             
1 49089U 21075Q   24173.93602574 -.00000147  00000+0 -44480-3 0  9994
2 49089  87.8937 135.0782 0002425  88.5467 271.5939 13.12445650140070
ONEWEB-0301             
1 49090U 21075R   24173.91982457 -.00000390  00000+0 -11197-2 0  9993
2 49090  87.8940 135.0845 0002345  87.2955 272.8442 13.12443578139433
ONEWEB-0302             
1 49091U 21075S   24173.90683184 -.00000091  00000+0 -28917-3 0  9995
2 49091  87.8941 135.0856 0001828  78.4411 281.6922 13.12442062139417
ONEWEB-0304             
1 49092U 21075T   24173.90236050  .00000012  00000+0 -32151-5 0  9991
2 49092  87.9167 150.2537 0001772  83.8506 276.2827 13.17662052138069
ONEWEB-0305             
1 49093U 21075U   24173.89435499  .00000020  00000+0  19003-4 0  9996
2 49093  87.9165 150.2420 0001648  94.4058 265.7262 13.17692331138093
ONEWEB-0308             
1 49094U 21075V   24173.90034369  .00000133  00000+0  33324-3 0  9996
2 49094  87.8938 135.0862 0002136  83.9362 276.2010 13.12440033139427
ONEWEB-0309             
1 49095U 21075W   24173.89915003  .00000010  00000+0 -76379-5 0  9992
2 49095  87.9169 150.2458 0001835  69.2400 290.8928 13.17674061138064
ONEWEB-0310             
1 49096U 21075X   24173.91495254 -.00000332  00000+0 -95948-3 0  9996
2 49096  87.8950 135.0916 0002059  77.8747 282.2612 13.12441582140052
ONEWEB-0311             
1 49097U 21075Y   24173.90557469  .00000015  00000+0  54921-5 0  9997
2 49097  87.9168 150.2454 0001725  96.3833 263.7495 13.17648322138115
ONEWEB-0312             
1 49098U 21075Z   24173.92000671  .00000027  00000+0  35690-4 0  9992
2 49098  87.9168 150.2746 0001571  82.0100 278.1209 13.17593127138090
ONEWEB-0313             
1 49099U 21075AA  24173.89755019  .00000024  00000+0  28637-4 0  9992
2 49099  87.9168 150.2814 0001729  85.3129 274.8199 13.17681007138084
ONEWEB-0314             
1 49100U 21075AB  24173.89114552 -.00000010  00000+0 -59117-4 0  9990
2 49100  87.9165 150.2405 0001583  93.9856 266.1457 13.17706131138054
ONEWEB-0315             
1 49101U 21075AC  24173.88899471  .00000406  00000+0  10930-2 0  9995
2 49101  87.8939 135.0822 0002146  84.9957 275.1416 13.12442786140039
ONEWEB-0316             
1 49102U 21075AD  24173.93191648  .00000060  00000+0  11988-3 0  9994
2 49102  87.9151 119.8404 0001953  86.8718 273.2638 13.18685436141622
ONEWEB-0317             
1 49103U 21075AE  24173.88250316  .00000444  00000+0  11975-2 0  9998
2 49103  87.8939 135.0929 0002410  72.0243 288.1148 13.12445567140057
ONEWEB-0318             
1 49104U 21075AF  24173.92874796  .00000057  00000+0  11143-3 0  9996
2 49104  87.9148 119.8345 0001893  89.1826 270.9523 13.18685193141585
ONEWEB-0319             
1 49105U 21075AG  24173.90716481 -.00000478  00000+0 -12641-2 0  9993
2 49105  87.9169 150.2708 0001591  99.0251 261.1061 13.17641370138097
ONEWEB-0323             
1 49106U 21075AH  24173.94900489  .00000296  00000+0  78845-3 0  9996
2 49106  87.8939 135.0668 0001901  86.2190 273.9156 13.12445288139422
ONEWEB-0329             
1 49107U 21075AJ  24173.91520436  .00000033  00000+0  52250-4 0  9996
2 49107  87.9169 150.2731 0001835  86.6737 273.4605 13.17611520138079
ONEWEB-0330             
1 49108U 21075AK  24173.91680007  .00000043  00000+0  78628-4 0  9996
2 49108  87.9169 150.2734 0001831  82.0741 278.0598 13.17605746138114
ONEWEB-0292             
1 49186U 21083A   24173.87742081  .00000358  00000+0  94477-3 0  9995
2 49186  87.8936 104.6274 0002007  82.0364 278.0992 13.13471143135719
ONEWEB-0303             
1 49187U 21083B   24173.92559438 -.00000007  00000+0 -50744-4 0  9997
2 49187  87.9148 119.8349 0001974  87.8017 272.3341 13.18685275134393
ONEWEB-0306             
1 49188U 21083C   24173.91610297  .00000006  00000+0 -17154-4 0  9994
2 49188  87.9148 119.8241 0002163  76.7076 283.4297 13.18688381134437
ONEWEB-0307             
1 49189U 21083D   24173.87186369  .00000360  00000+0  95166-3 0  9998
2 49189  87.8937 104.6284 0002008  67.7499 292.3843 13.13471434135711
ONEWEB-0320             
1 49190U 21083E   24173.92242731  .00000044  00000+0  78750-4 0  9992
2 49190  87.9151 119.8471 0002053  80.8257 279.3107 13.18684553134390
ONEWEB-0321             
1 49191U 21083F   24173.75390904  .00000089  00000+0  18678-3 0  9991
2 49191  87.9209  58.7718 0002111  75.7088 284.4280 13.20771914141073
ONEWEB-0322             
1 49192U 21083G   24173.86790375  .00000225  00000+0  58237-3 0  9997
2 49192  87.8935 104.6183 0002340  69.2516 290.8864 13.13468610135704
ONEWEB-0324             
1 49193U 21083H   24173.90821202 -.00000004  00000+0 -43378-4 0  9995
2 49193  87.9149 119.8315 0001823  77.4771 282.6565 13.18686107134419
ONEWEB-0325             
1 49194U 21083J   24173.91293682  .00000000  00000+0 -31921-4 0  9998
2 49194  87.9151 119.8445 0002153  79.5982 280.5392 13.18683357134421
ONEWEB-0326             
1 49195U 21083K   24173.92718181  .00000062  00000+0  12480-3 0  9991
2 49195  87.9148 119.8404 0001702  95.2002 264.9325 13.18685658134417
ONEWEB-0327             
1 49196U 21083L   24173.90106485 -.00000017  00000+0 -75035-4 0  9996
2 49196  87.9148 119.8580 0001882  91.1388 268.9959 13.18688567134435
